STARLINK-36164          
1 67127U 25299AB  26043.25003472  .00093709  00000+0  22273-2 0  9993
2 67127  43.0021 314.9831 0001559 276.2217 268.1008 15.40643010  5904
STARLINK-35685          
1 67128U 25299AC  26043.11856331  .00053809  00000+0  12841-2 0  9996
2 67128  43.0014 316.1623 0002006 253.4745 106.5891 15.40751113  9173
STARLINK-36214          
1 67129U 25299AD  26043.14753527  .00047425  00000+0  11336-2 0  9998
2 67129  43.0002 315.5149 0003468 252.0509 107.9969 15.40747925  9181
STARLINK-36194          
1 67130U 25299AE  26043.09616137  .00046791  00000+0  11201-2 0  9995
2 67130  43.0031 315.9884 0001749 262.4221  97.6437 15.40710729  9177
STARLINK-36182          
1 67192U 25304A   26043.25003472 -.02141089  00000+0 -10630+0 0  9992
2 67192  70.0005 238.8377 0003066 276.8793 243.8449 15.21361718  5749
STARLINK-36279          
1 67193U 25304B   26043.25003472 -.02479091  00000+0 -14786+0 0  9996
2 67193  70.0014 238.7687 0004012 264.2502 306.4563 15.14960872  5903
STARLINK-36284          
1 67194U 25304C   26043.25003472 -.02507631  00000+0 -14563+0 0  9992
2 67194  69.9992 238.8476 0002503 264.9209 237.7119 15.15952872  5654
STARLINK-36291          
1 67195U 25304D   26043.25003472 -.02190686  00000+0 -16284+0 0  9993
2 67195  70.0080 238.9085 0003244 274.2065 178.8626 15.06575593  5840
STARLINK-36239          
1 67196U 25304E   26043.25003472 -.02227575  00000+0 -12917+0 0  9991
2 67196  70.0006 238.9119 0002904 272.7568 181.0319 15.15558765  5803
STARLINK-36283          
1 67197U 25304F   26043.25003472 -.02516336  00000+0 -13753+0 0  9997
2 67197  69.9997 238.6450 0003517 277.3845  43.5198 15.18067050  5908
STARLINK-36267          
1 67198U 25304G   26043.25003472 -.02487572  00000+0 -14440+0 0  9991
2 67198  69.9995 238.7960 0003732 261.3572 285.4470 15.15927051  5906
STARLINK-36268          
1 67199U 25304H   26043.25003472 -.02198870  00000+0 -15193+0 0  9998
2 67199  70.0141 238.7728 0003048 265.7985 306.4193 15.09261944  5834
STARLINK-36270          
1 67200U 25304J   26043.25003472 -.02140570  00000+0 -11041+0 0  9993
2 67200  70.0005 238.8373 0003019 277.0042 243.0093 15.20063764  5907
STARLINK-36262          
1 67201U 25304K   26043.25003472 -.02519964  00000+0 -14690+0 0  9994
2 67201  69.9991 238.8801 0002889 271.1936 205.6707 15.15839219  5834
STARLINK-36263          
1 67202U 25304L   26043.25003472 -.02496001  00000+0 -14455+0 0  9990
2 67202  69.9990 238.8200 0003445 263.4732 262.4068 15.16023176  5800
STARLINK-36224          
1 67203U 25304M   26043.25003472 -.02159528  00000+0 -12470+0 0  9996
2 67203  70.0010 238.7672 0003029 269.2469 310.2322 15.16200934  5903
