[{"OBJECT_NAME":"STARLINK-36164","OBJECT_ID":"2025-299AB","EPOCH":"2026-02-12T06:00:02.999808","MEAN_MOTION":15.4064301,"ECCENTRICITY":0.00015597,"INCLINATION":43.0021,"RA_OF_ASC_NODE":314.9831,"ARG_OF_PERICENTER":276.2217,"MEAN_ANOMALY":268.1008,"EPHEMERIS_TYPE":0,"CLASSIFICATION_TYPE":"U","NORAD_CAT_ID":67127,"ELEMENT_SET_NO":999,"REV_AT_EPOCH":590,"BSTAR":0.0022273144,"MEAN_MOTION_DOT":0.00093709,"MEAN_MOTION_DDOT":0},{"OBJECT_NAME":"STARLINK-35685","OBJECT_ID":"2025-299AC","EPOCH":"2026-02-12T02:50:43.869984","MEAN_MOTION":15.40751113,"ECCENTRICITY":0.00020062,"INCLINATION":43.0014,"RA_OF_ASC_NODE":316.1623,"ARG_OF_PERICENTER":253.4745,"MEAN_ANOMALY":106.5891,"EPHEMERIS_TYPE":0,"CLASSIFICATION_TYPE":"U","NORAD_CAT_ID":67128,"ELEMENT_SET_NO":999,"REV_AT_EPOCH":917,"BSTAR":0.0012841079,"MEAN_MOTION_DOT":0.00053809,"MEAN_MOTION_DDOT":0},{"OBJECT_NAME":"STARLINK-36214","OBJECT_ID":"2025-299AD","EPOCH":"2026-02-12T03:32:27.047328","MEAN_MOTION":15.40747925,"ECCENTRICITY":0.00034688,"INCLINATION":43.0002,"RA_OF_ASC_NODE":315.5149,"ARG_OF_PERICENTER":252.0509,"MEAN_ANOMALY":107.9969,"EPHEMERIS_TYPE":0,"CLASSIFICATION_TYPE":"U","NORAD_CAT_ID":67129,"ELEMENT_SET_NO":999,"REV_AT_EPOCH":918,"BSTAR":0.001133568,"MEAN_MOTION_DOT":0.00047425,"MEAN_MOTION_DDOT":0},{"OBJECT_NAME":"STARLINK-36194","OBJECT_ID":"2025-299AE","EPOCH":"2026-02-12T02:18:28.342368","MEAN_MOTION":15.40710729,"ECCENTRICITY":0.00017493,"INCLINATION":43.0031,"RA_OF_ASC_NODE":315.9884,"ARG_OF_PERICENTER":262.4221,"MEAN_ANOMALY":97.6437,"EPHEMERIS_TYPE":0,"CLASSIFICATION_TYPE":"U","NORAD_CAT_ID":67130,"ELEMENT_SET_NO":999,"REV_AT_EPOCH":917,"BSTAR":0.0011201177,"MEAN_MOTION_DOT":0.00046791,"MEAN_MOTION_DDOT":0},{"OBJECT_NAME":"STARLINK-36182","OBJECT_ID":"2025-304A","EPOCH":"2026-02-12T06:00:02.999808","MEAN_MOTION":15.21361718,"ECCENTRICITY":0.00030666,"INCLINATION":70.0005,"RA_OF_ASC_NODE":238.8377,"ARG_OF_PERICENTER":276.8793,"MEAN_ANOMALY":243.8449,"EPHEMERIS_TYPE":0,"CLASSIFICATION_TYPE":"U","NORAD_CAT_ID":67192,"ELEMENT_SET_NO":999,"REV_AT_EPOCH":574,"BSTAR":-0.10629882,"MEAN_MOTION_DOT":-0.02141089,"MEAN_MOTION_DDOT":0},{"OBJECT_NAME":"STARLINK-36279","OBJECT_ID":"2025-304B","EPOCH":"2026-02-12T06:00:02.999808","MEAN_MOTION":15.14960872,"ECCENTRICITY":0.00040124,"INCLINATION":70.0014,"RA_OF_ASC_NODE":238.7687,"ARG_OF_PERICENTER":264.2502,"MEAN_ANOMALY":306.4563,"EPHEMERIS_TYPE":0,"CLASSIFICATION_TYPE":"U","NORAD_CAT_ID":67193,"ELEMENT_SET_NO":999,"REV_AT_EPOCH":590,"BSTAR":-0.14785732,"MEAN_MOTION_DOT":-0.02479091,"MEAN_MOTION_DDOT":0},{"OBJECT_NAME":"STARLINK-36284","OBJECT_ID":"2025-304C","EPOCH":"2026-02-12T06:00:02.999808","MEAN_MOTION":15.15952872,"ECCENTRICITY":0.00025032,"INCLINATION":69.9992,"RA_OF_ASC_NODE":238.8476,"ARG_OF_PERICENTER":264.9209,"MEAN_ANOMALY":237.7119,"EPHEMERIS_TYPE":0,"CLASSIFICATION_TYPE":"U","NORAD_CAT_ID":67194,"ELEMENT_SET_NO":999,"REV_AT_EPOCH":565,"BSTAR":-0.14563454,"MEAN_MOTION_DOT":-0.02507631,"MEAN_MOTION_DDOT":0},{"OBJECT_NAME":"STARLINK-36291","OBJECT_ID":"2025-304D","EPOCH":"2026-02-12T06:00:02.999808","MEAN_MOTION":15.06575593,"ECCENTRICITY":0.00032442,"INCLINATION":70.008,"RA_OF_ASC_NODE":238.9085,"ARG_OF_PERICENTER":274.2065,"MEAN_ANOMALY":178.8626,"EPHEMERIS_TYPE":0,"CLASSIFICATION_TYPE":"U","NORAD_CAT_ID":67195,"ELEMENT_SET_NO":999,"REV_AT_EPOCH":584,"BSTAR":-0.16284241,"MEAN_MOTION_DOT":-0.02190686,"MEAN_MOTION_DDOT":0},{"OBJECT_NAME":"STARLINK-36239","OBJECT_ID":"2025-304E","EPOCH":"2026-02-12T06:00:02.999808","MEAN_MOTION":15.15558765,"ECCENTRICITY":0.00029045,"INCLINATION":70.0006,"RA_OF_ASC_NODE":238.9119,"ARG_OF_PERICENTER":272.7568,"MEAN_ANOMALY":181.0319,"EPHEMERIS_TYPE":0,"CLASSIFICATION_TYPE":"U","NORAD_CAT_ID":67196,"ELEMENT_SET_NO":999,"REV_AT_EPOCH":580,"BSTAR":-0.12916982,"MEAN_MOTION_DOT":-0.02227575,"MEAN_MOTION_DDOT":0},{"OBJECT_NAME":"STARLINK-36283","OBJECT_ID":"2025-304F","EPOCH":"2026-02-12T06:00:02.999808","MEAN_MOTION":15.1806705,"ECCENTRICITY":0.00035179,"INCLINATION":69.9997,"RA_OF_ASC_NODE":238.645,"ARG_OF_PERICENTER":277.3845,"MEAN_ANOMALY":43.5198,"EPHEMERIS_TYPE":0,"CLASSIFICATION_TYPE":"U","NORAD_CAT_ID":67197,"ELEMENT_SET_NO":999,"REV_AT_EPOCH":590,"BSTAR":-0.1375268,"MEAN_MOTION_DOT":-0.02516336,"MEAN_MOTION_DDOT":0},{"OBJECT_NAME":"STARLINK-36267","OBJECT_ID":"2025-304G","EPOCH":"2026-02-12T06:00:02.999808","MEAN_MOTION":15.15927051,"ECCENTRICITY":0.00037323,"INCLINATION":69.9995,"RA_OF_ASC_NODE":238.796,"ARG_OF_PERICENTER":261.3572,"MEAN_ANOMALY":285.447,"EPHEMERIS_TYPE":0,"CLASSIFICATION_TYPE":"U","NORAD_CAT_ID":67198,"ELEMENT_SET_NO":999,"REV_AT_EPOCH":590,"BSTAR":-0.14439553,"MEAN_MOTION_DOT":-0.02487572,"MEAN_MOTION_DDOT":0},{"OBJECT_NAME":"STARLINK-36268","OBJECT_ID":"2025-304H","EPOCH":"2026-02-12T06:00:02.999808","MEAN_MOTION":15.09261944,"ECCENTRICITY":0.00030489,"INCLINATION":70.0141,"RA_OF_ASC_NODE":238.7728,"ARG_OF_PERICENTER":265.7985,"MEAN_ANOMALY":306.4193,"EPHEMERIS_TYPE":0,"CLASSIFICATION_TYPE":"U","NORAD_CAT_ID":67199,"ELEMENT_SET_NO":999,"REV_AT_EPOCH":583,"BSTAR":-0.15192668,"MEAN_MOTION_DOT":-0.0219887,"MEAN_MOTION_DDOT":0},{"OBJECT_NAME":"STARLINK-36270","OBJECT_ID":"2025-304J","EPOCH":"2026-02-12T06:00:02.999808","MEAN_MOTION":15.20063764,"ECCENTRICITY":0.00030192,"INCLINATION":70.0005,"RA_OF_ASC_NODE":238.8373,"ARG_OF_PERICENTER":277.0042,"MEAN_ANOMALY":243.0093,"EPHEMERIS_TYPE":0,"CLASSIFICATION_TYPE":"U","NORAD_CAT_ID":67200,"ELEMENT_SET_NO":999,"REV_AT_EPOCH":590,"BSTAR":-0.11040552,"MEAN_MOTION_DOT":-0.0214057,"MEAN_MOTION_DDOT":0},{"OBJECT_NAME":"STARLINK-36262","OBJECT_ID":"2025-304K","EPOCH":"2026-02-12T06:00:02.999808","MEAN_MOTION":15.15839219,"ECCENTRICITY":0.00028899,"INCLINATION":69.9991,"RA_OF_ASC_NODE":238.8801,"ARG_OF_PERICENTER":271.1936,"MEAN_ANOMALY":205.6707,"EPHEMERIS_TYPE":0,"CLASSIFICATION_TYPE":"U","NORAD_CAT_ID":67201,"ELEMENT_SET_NO":999,"REV_AT_EPOCH":583,"BSTAR":-0.14689568,"MEAN_MOTION_DOT":-0.02519964,"MEAN_MOTION_DDOT":0},{"OBJECT_NAME":"STARLINK-36263","OBJECT_ID":"2025-304L","EPOCH":"2026-02-12T06:00:02.999808","MEAN_MOTION":15.16023176,"ECCENTRICITY":0.00034456,"INCLINATION":69.999,"RA_OF_ASC_NODE":238.82,"ARG_OF_PERICENTER":263.4732,"MEAN_ANOMALY":262.4068,"EPHEMERIS_TYPE":0,"CLASSIFICATION_TYPE":"U","NORAD_CAT_ID":67202,"ELEMENT_SET_NO":999,"REV_AT_EPOCH":580,"BSTAR":-0.14455405,"MEAN_MOTION_DOT":-0.02496001,"MEAN_MOTION_DDOT":0},{"OBJECT_NAME":"STARLINK-36224","OBJECT_ID":"2025-304M","EPOCH":"2026-02-12T06:00:02.999808","MEAN_MOTION":15.16200934,"ECCENTRICITY":0.00030292,"INCLINATION":70.001,"RA_OF_ASC_NODE":238.7672,"ARG_OF_PERICENTER":269.2469,"MEAN_ANOMALY":310.2322,"EPHEMERIS_TYPE":0,"CLASSIFICATION_TYPE":"U","NORAD_CAT_ID":67203,"ELEMENT_SET_NO":999,"REV_AT_EPOCH":590,"BSTAR":-0.1247014,"MEAN_MOTION_DOT":-0.02159528,"MEAN_MOTION_DDOT":0}]
